MALLIGYONG-1            
1 58400U 23179A   23352.79239839  .00008381  00000+0  37407-3 0  9997
2 58400  97.4244 237.2107 0015814 176.9300 251.5943 15.21514661  4135
